0 COSMOS 789 DEB
1 36299U 76005C   13285.21693226  .00000560  00000-0  57637-3 0  5647
2 36299 082.9771 008.1353 0032672 137.4823 253.3745 13.74234883214967
0 COSMOS 789 DEB
1 36299U 76005C   13288.20175485  .00000792  00000-0  82164-3 0  5652
2 36299 082.9769 005.9379 0032575 129.5778 259.6198 13.74238866215372
0 COSMOS 789 DEB
1 36299U 76005C   13290.53873068  .00000717  00000-0  74222-3 0  5667
2 36299 082.9763 004.2170 0032494 123.3909 300.9275 13.74242345215705
0 COSMOS 789 DEB
1 36299U 76005C   13292.66826066  .00000736  00000-0  76171-3 0  5676
2 36299 082.9760 002.6490 0032405 117.7116 036.0418 13.74245229215999
0 COSMOS 789 DEB
1 36299U 76005C   13294.91961925  .00000731  00000-0  75692-3 0  5683
2 36299 082.9759 000.9910 0032300 111.6802 013.9139 13.74248617216308
